NORAD_CAT_ID,OBJECT_NAME,OBJECT_TYPE,EPOCH,MEAN_MOTION,ECCENTRICITY,INCLINATION,RA_OF_ASC_NODE,ARG_OF_PERICENTER,MEAN_ANOMALY,BSTAR,MEAN_MOTION_DOT,MEAN_MOTION_DDOT,TLE_LINE0,TLE_LINE1,TLE_LINE2,SEMIMAJOR_AXIS,PERIOD,APOGEE,PERIGEE,DECAYED
50828.0,STARLINK-3290,PAYLOAD,2023-07-29 02:12:48,15.08848274,0.0001053,53.2175,134.3694,107.5807,252.5301,5.3883e-05,5.7e-06,0.0,0 STARLINK-3290,1 50828U 22001AB  23210.09223211  .00000570  00000-0  53883-4 0  9999,2 50828  53.2175 134.3694 0001053 107.5807 252.5301 15.08848274 87577,6917.855,95.437,540.449,538.992,0.0
50828.0,STARLINK-3290,PAYLOAD,2023-07-30 02:03:36,15.0884271,0.0001244,53.2168,129.9083,104.6863,255.4267,0.00019818,2.868e-05,0.0,0 STARLINK-3290,1 50828U 22001AB  23211.08583859  .00002868  00000-0  19818-3 0  9997,2 50828  53.2168 129.9083 0001244 104.6863 255.4267 15.08842710 87722,6917.872,95.437,540.598,538.877,0.0
50828.0,STARLINK-3290,PAYLOAD,2023-07-31 01:54:23,15.08843924,0.0001203,53.2174,125.4475,95.1287,264.9843,7.3203e-05,8.77e-06,0.0,0 STARLINK-3290,1 50828U 22001AB  23212.07943904  .00000877  00000-0  73203-4 0  9995,2 50828  53.2174 125.4475 0001203  95.1287 264.9843 15.08843924 87873,6917.868,95.437,540.566,538.901,0.0
50828.0,STARLINK-3290,PAYLOAD,2023-08-01 00:09:48,15.0883737,0.0001387,53.2184,121.2849,84.8758,275.2392,3.1006e-05,2.06e-06,0.0,0 STARLINK-3290,1 50828U 22001AB  23213.00680584  .00000206  00000-0  31006-4 0  9992,2 50828  53.2184 121.2849 0001387  84.8758 275.2392 15.08837370 88013,6917.888,95.438,540.713,538.794,0.0
50828.0,STARLINK-3290,PAYLOAD,2023-08-02 03:11:21,15.08847353,0.0001143,53.2167,116.2305,86.6067,273.5055,0.00020192,2.928e-05,0.0,0 STARLINK-3290,1 50828U 22001AB  23214.13288391  .00002928  00000-0  20192-3 0  9993,2 50828  53.2167 116.2305 0001143  86.6067 273.5055 15.08847353 88185,6917.858,95.437,540.514,538.932,0.0
50828.0,STARLINK-3290,PAYLOAD,2023-08-04 01:17:32,15.0883852,0.0001183,53.2167,107.6065,87.3351,272.7776,1.4907e-05,-5.1e-07,0.0,0 STARLINK-3290,1 50828U 22001AB  23216.05384851 -.00000051  00000-0  14907-4 0  9998,2 50828  53.2167 107.6065 0001183  87.3351 272.7776 15.08838520 88479,6917.885,95.438,540.568,538.932,0.0
50828.0,STARLINK-3290,PAYLOAD,2023-08-05 02:43:42,15.08856086,0.0001192,53.2166,102.8489,77.8972,282.2154,0.0005919,9.149e-05,0.0,0 STARLINK-3290,1 50828U 22001AB  23217.11368502  .00009149  00000-0  59190-3 0  9999,2 50828  53.2166 102.8489 0001192  77.8972 282.2154 15.08856086 88639,6917.831,95.437,540.521,538.872,0.0
50828.0,STARLINK-3290,PAYLOAD,2023-08-06 00:59:05,15.08866631,0.0001143,53.2168,98.6869,88.4818,271.6305,0.0006095,9.433e-05,0.0,0 STARLINK-3290,1 50828U 22001AB  23218.04103709  .00009433  00000-0  60950-3 0  9990,2 50828  53.2168  98.6869 0001143  88.4818 271.6305 15.08866631 88770,6917.799,95.436,540.455,538.873,0.0
50828.0,STARLINK-3290,PAYLOAD,2023-08-06 08:56:01,15.08844401,0.0002013,53.2162,97.1983,70.7504,289.3706,-3.8837e-05,-9.06e-06,0.0,0 STARLINK-3290,1 50828U 22001AB  23218.37224262 -.00000906  00000-0 -38837-4 0  9992,2 50828  53.2162  97.1983 0002013  70.7504 289.3706 15.08844401 88826,6917.867,95.437,541.125,538.339,0.0
50828.0,STARLINK-3290,PAYLOAD,2023-08-07 00:49:54,15.08819795,0.0001326,53.2164,94.2241,69.9595,290.154,-0.00036464,-6.083e-05,0.0,0 STARLINK-3290,1 50828U 22001AB  23219.03465615 -.00006083  00000-0 -36464-3 0  9990,2 50828  53.2164  94.2241 0001326  69.9595 290.1540 15.08819795 88924,6917.942,95.439,540.724,538.89,0.0
50828.0,STARLINK-3290,PAYLOAD,2023-08-07 08:46:50,15.08829117,0.0001209,53.2172,92.7377,72.7517,287.3608,-0.00013138,-2.377e-05,0.0,0 STARLINK-3290,1 50828U 22001AB  23219.36585789 -.00002377  00000-0 -13138-3 0  9996,2 50828  53.2172  92.7377 0001209  72.7517 287.3608 15.08829117 88979,6917.914,95.438,540.615,538.942,0.0
50828.0,STARLINK-3290,PAYLOAD,2023-08-08 02:16:04,15.08849227,0.0001066,53.2162,89.4669,73.3728,286.7381,0.0011664,0.00018329,0.0,0 STARLINK-3290,1 50828U 22001AB  23220.09450199  .00018329  00000-0  11664-2 0  9997,2 50828  53.2162  89.4669 0001066  73.3728 286.7381 15.08849227 89085,6917.852,95.437,540.455,538.98,0.0
50828.0,STARLINK-3290,PAYLOAD,2023-08-09 08:28:23,15.08858032,0.0001822,53.2165,83.8167,77.3062,282.8134,0.00039206,5.96e-05,0.0,0 STARLINK-3290,1 50828U 22001AB  23221.35304910  .00005960  00000-0  39206-3 0  9996,2 50828  53.2165  83.8167 0001822  77.3062 282.8134 15.08858032 89272,6917.825,95.436,540.951,538.43,0.0
50828.0,STARLINK-3290,PAYLOAD,2023-08-10 00:22:14,15.08844814,0.0001158,53.2167,80.8426,106.05,254.0619,0.00020282,2.942e-05,0.0,0 STARLINK-3290,1 50828U 22001AB  23222.01544904  .00002942  00000-0  20282-3 0  9990,2 50828  53.2167  80.8426 0001158 106.0500 254.0619 15.08844814 89371,6917.866,95.437,540.532,538.93,0.0
50828.0,STARLINK-3290,PAYLOAD,2023-08-10 16:16:06,15.08840888,0.000127,53.2151,77.8711,82.6096,277.5041,0.00020796,3.023e-05,0.0,0 STARLINK-3290,1 50828U 22001AB  23222.67785265  .00003023  00000-0  20796-3 0  9990,2 50828  53.2151  77.8711 0001270  82.6096 277.5041 15.08840888 89478,6917.878,95.437,540.621,538.864,0.0
50828.0,STARLINK-3290,PAYLOAD,2023-08-11 17:42:16,15.08838324,0.0001268,53.217,73.1144,86.7785,273.3352,0.00011224,1.499e-05,0.0,0 STARLINK-3290,1 50828U 22001AB  23223.73769453  .00001499  00000-0  11224-3 0  9990,2 50828  53.2170  73.1144 0001268  86.7785 273.3352 15.08838324 89634,6917.886,95.438,540.628,538.873,0.0
50828.0,STARLINK-3290,PAYLOAD,2023-08-12 01:39:12,15.08846287,0.0001055,53.2167,71.6262,102.1309,257.9801,0.00019015,2.74e-05,0.0,0 STARLINK-3290,1 50828U 22001AB  23224.06888970  .00002740  00000-0  19015-3 0  9999,2 50828  53.2167  71.6262 0001055 102.1309 257.9801 15.08846287 89682,6917.861,95.437,540.456,538.996,0.0
50828.0,STARLINK-3290,PAYLOAD,2023-08-12 20:43:50,15.08839813,0.0001108,53.217,68.0598,88.871,271.2409,6.0322e-05,6.72e-06,0.0,0 STARLINK-3290,1 50828U 22001AB  23224.86377439  .00000672  00000-0  60322-4 0  9990,2 50828  53.2170  68.0598 0001108  88.8710 271.2409 15.08839813 89807,6917.881,95.438,540.512,538.979,0.0
50828.0,STARLINK-3290,PAYLOAD,2023-08-13 18:59:14,15.08835589,0.0001058,53.2166,63.8965,85.5568,274.5544,1.5333e-05,-4.4e-07,0.0,0 STARLINK-3290,1 50828U 22001AB  23225.79113888 -.00000044  00000-0  15333-4 0  9995,2 50828  53.2166  63.8965 0001058  85.5568 274.5544 15.08835589 89949,6917.894,95.438,540.491,539.027,0.0
50828.0,STARLINK-3290,PAYLOAD,2023-08-14 12:28:28,15.08849445,0.0001567,53.2179,60.6241,74.9606,285.156,-3.9395e-05,-9.15e-06,0.0,0 STARLINK-3290,1 50828U 22001AB  23226.51977580 -.00000915  00000-0 -39395-4 0  9995,2 50828  53.2179  60.6241 0001567  74.9606 285.1560 15.08849445 90051,6917.852,95.437,540.801,538.632,0.0
50828.0,STARLINK-3290,PAYLOAD,2023-08-15 18:40:48,15.08844374,0.000108,53.2181,54.9739,90.111,270.0006,0.00011508,1.544e-05,0.0,0 STARLINK-3290,1 50828U 22001AB  23227.77833833  .00001544  00000-0  11508-3 0  9998,2 50828  53.2181  54.9739 0001080  90.1110 270.0006 15.08844374 90247,6917.867,95.437,540.479,538.985,0.0
50828.0,STARLINK-3290,PAYLOAD,2023-08-16 18:31:35,15.08839956,0.0001059,53.216,50.5137,80.4043,279.7069,6.1817e-05,6.96e-06,0.0,0 STARLINK-3290,1 50828U 22001AB  23228.77194028  .00000696  00000-0  61817-4 0  9991,2 50828  53.2160  50.5137 0001059  80.4043 279.7069 15.08839956 90392,6917.881,95.438,540.478,539.013,0.0
50828.0,STARLINK-3290,PAYLOAD,2023-08-17 23:08:31,15.08863098,0.0001194,53.2157,45.1595,79.3459,280.7668,0.00049186,7.554e-05,0.0,0 STARLINK-3290,1 50828U 22001AB  23229.96424819  .00007554  00000-0  49186-3 0  9991,2 50828  53.2157  45.1595 0001194  79.3459 280.7668 15.08863098 90575,6917.81,95.436,540.501,538.849,0.0
50828.0,STARLINK-3290,PAYLOAD,2023-08-18 18:13:10,15.08803089,5.66e-05,53.2207,41.5916,311.3676,48.7267,-0.00060159,-9.839e-05,0.0,0 STARLINK-3290,1 50828U 22001AB  23230.75915462 -.00009839  00000-0 -60159-3 0  9992,2 50828  53.2207  41.5916 0000566 311.3676  48.7267 15.08803089 90694,6917.993,95.44,540.25,539.467,0.0
50828.0,STARLINK-3290,PAYLOAD,2023-08-18 21:23:57,15.08806674,0.000127,53.2168,40.9978,83.8584,276.2553,-0.00052201,-8.578e-05,0.0,0 STARLINK-3290,1 50828U 22001AB  23230.89163605 -.00008578  00000-0 -52201-3 0  9999,2 50828  53.2168  40.9978 0001270  83.8584 276.2553 15.08806674 90715,6917.982,95.44,540.726,538.969,0.0
50828.0,STARLINK-3290,PAYLOAD,2023-08-19 11:42:25,15.08830442,8.5e-05,53.2169,38.3204,87.7494,272.3596,0.00024798,3.66e-05,0.0,0 STARLINK-3290,1 50828U 22001AB  23231.48779432  .00003660  00000-0  24798-3 0  9991,2 50828  53.2169  38.3204 0000850  87.7494 272.3596 15.08830442 90809,6917.91,95.438,540.363,539.187,0.0
50828.0,STARLINK-3290,PAYLOAD,2023-08-19 21:14:44,15.08847619,0.0001,53.2212,36.5398,98.265,261.8456,0.00089228,0.00013944,0.0,0 STARLINK-3290,1 50828U 22001AB  23231.88523571  .00013944  00000-0  89228-3 0  9991,2 50828  53.2212  36.5398 0001000  98.2650 261.8456 15.08847619 90869,6917.857,95.437,540.414,539.03,0.0
50828.0,STARLINK-3290,PAYLOAD,2023-08-20 11:33:12,15.08845235,0.0001178,53.2189,33.8635,85.3211,274.7916,0.00044143,6.745e-05,0.0,0 STARLINK-3290,1 50828U 22001AB  23232.48139278  .00006745  00000-0  44143-3 0  9993,2 50828  53.2189  33.8635 0001178  85.3211 274.7916 15.08845235 90958,6917.864,95.437,540.544,538.914,0.0
50828.0,STARLINK-3290,PAYLOAD,2023-08-21 19:20:53,15.08854125,9.18e-05,53.2172,27.9133,86.8535,273.2562,3.9845e-05,3.47e-06,0.0,0 STARLINK-3290,1 50828U 22001AB  23233.80617970  .00000347  00000-0  39845-4 0  9996,2 50828  53.2172  27.9133 0000918  86.8535 273.2562 15.08854125 91155,6917.837,95.437,540.337,539.067,0.0
50828.0,STARLINK-3290,PAYLOAD,2023-08-22 11:14:45,15.08842869,0.000108,53.2155,24.938,84.167,275.9445,-8.0142e-05,-1.563e-05,0.0,0 STARLINK-3290,1 50828U 22001AB  23234.46858240 -.00001563  00000-0 -80142-4 0  9995,2 50828  53.2155  24.9380 0001080  84.1670 275.9445 15.08842869 91251,6917.872,95.437,540.484,538.989,0.0
